start=new Date('2023-03-05T00:00:00.000Z').valueOf();
sats=[{"TLE_LINE2":"2 53992  53.2146 115.9639 0001126  99.6356 260.4763 15.08836211 23269","REV_AT_EPOCH":"2326","CLASSIFICATION_TYPE":"U","INCLINATION":"53.2146","MEAN_ELEMENT_THEORY":"SGP4","OBJECT_NAME":"STARLINK-5108","ECCENTRICITY":"0.00011260","SITE":"AFWTR","EPOCH":"2023-03-04T20:28:18.616800","GP_ID":"227511650","COUNTRY_CODE":"US","APOAPSIS":"540.536","LAUNCH_DATE":"2022-10-05","RA_OF_ASC_NODE":"115.9639","FILE":"3851350","MEAN_MOTION":"15.08836211","RCS_SIZE":"LARGE","ARG_OF_PERICENTER":"99.6356","MEAN_ANOMALY":"260.4763","EPHEMERIS_TYPE":"0","DECAY_DATE":null,"PERIOD":"95.438","PERIAPSIS":"538.978","TLE_LINE1":"1 53992U 22125AE  23063.85299325  .00004676  00000-0  31172-3 0  9997","NORAD_CAT_ID":"53992","MEAN_MOTION_DOT":"0.00004676","ELEMENT_SET_NO":"999","BSTAR":"0.00031172000000","OBJECT_ID":"2022-125AE","MEAN_MOTION_DDOT":"0.0000000000000","TIME_SYSTEM":"UTC","OBJECT_TYPE":"PAYLOAD","REF_FRAME":"TEME","SEMIMAJOR_AXIS":"6917.892","CENTER_NAME":"EARTH"},{"REF_FRAME":"TEME","CENTER_NAME":"EARTH","SEMIMAJOR_AXIS":"6917.858","TIME_SYSTEM":"UTC","OBJECT_TYPE":"PAYLOAD","OBJECT_ID":"2022-125AF","MEAN_MOTION_DDOT":"0.0000000000000","ELEMENT_SET_NO":"999","BSTAR":"0.00130030000000","MEAN_MOTION_DOT":"0.00020471","PERIAPSIS":"538.871","TLE_LINE1":"1 53993U 22125AF  23063.82950063  .00020471  00000-0  13003-2 0  9991","NORAD_CAT_ID":"53993","MEAN_ANOMALY":"269.2775","PERIOD":"95.437","DECAY_DATE":null,"EPHEMERIS_TYPE":"0","FILE":"3851350","MEAN_MOTION":"15.08847469","ARG_OF_PERICENTER":"90.8358","RCS_SIZE":"LARGE","RA_OF_ASC_NODE":"110.8242","APOAPSIS":"540.574","LAUNCH_DATE":"2022-10-05","EPOCH":"2023-03-04T19:54:28.854432","ECCENTRICITY":"0.00012310","SITE":"AFWTR","COUNTRY_CODE":"US","GP_ID":"227512387","OBJECT_NAME":"STARLINK-5121","MEAN_ELEMENT_THEORY":"SGP4","CLASSIFICATION_TYPE":"U","REV_AT_EPOCH":"2333","TLE_LINE2":"2 53993  53.2187 110.8242 0001231  90.8358 269.2775 15.08847469 23336","INCLINATION":"53.2187"},{"OBJECT_ID":"2022-125AG","MEAN_MOTION_DDOT":"0.0000000000000","ELEMENT_SET_NO":"999","BSTAR":"-0.00025577000000","REF_FRAME":"TEME","SEMIMAJOR_AXIS":"6917.922","CENTER_NAME":"EARTH","TIME_SYSTEM":"UTC","OBJECT_TYPE":"PAYLOAD","MEAN_ANOMALY":"248.6845","DECAY_DATE":null,"PERIOD":"95.438","EPHEMERIS_TYPE":"0","MEAN_MOTION_DOT":"-0.00004354","PERIAPSIS":"539.121","TLE_LINE1":"1 53994U 22125AG  23063.84194074 -.00004354  00000-0 -25577-3 0  9990","NORAD_CAT_ID":"53994","APOAPSIS":"540.453","LAUNCH_DATE":"2022-10-05","FILE":"3851350","MEAN_MOTION":"15.08826319","RCS_SIZE":"LARGE","ARG_OF_PERICENTER":"111.4250","RA_OF_ASC_NODE":"115.8979","MEAN_ELEMENT_THEORY":"SGP4","TLE_LINE2":"2 53994  53.2150 115.8979 0000963 111.4250 248.6845 15.08826319 23274","REV_AT_EPOCH":"2327","CLASSIFICATION_TYPE":"U","INCLINATION":"53.2150","ECCENTRICITY":"0.00009630","SITE":"AFWTR","EPOCH":"2023-03-04T20:12:23.679936","GP_ID":"227511149","COUNTRY_CODE":"US","OBJECT_NAME":"STARLINK-5125"},{"LAUNCH_DATE":"2022-10-05","APOAPSIS":"540.576","ARG_OF_PERICENTER":"102.5961","RCS_SIZE":"LARGE","FILE":"3851350","MEAN_MOTION":"15.08838364","RA_OF_ASC_NODE":"115.9420","MEAN_ELEMENT_THEORY":"SGP4","INCLINATION":"53.2143","CLASSIFICATION_TYPE":"U","REV_AT_EPOCH":"2326","TLE_LINE2":"2 53995  53.2143 115.9420 0001193 102.5961 257.5164 15.08838364 23260","COUNTRY_CODE":"US","GP_ID":"227511398","EPOCH":"2023-03-04T20:23:00.003840","SITE":"AFWTR","ECCENTRICITY":"0.00011930","OBJECT_NAME":"STARLINK-5097","MEAN_MOTION_DDOT":"0.0000000000000","OBJECT_ID":"2022-125AH","BSTAR":"0.00023808000000","ELEMENT_SET_NO":"999","CENTER_NAME":"EARTH","SEMIMAJOR_AXIS":"6917.885","REF_FRAME":"TEME","OBJECT_TYPE":"PAYLOAD","TIME_SYSTEM":"UTC","EPHEMERIS_TYPE":"0","DECAY_DATE":null,"PERIOD":"95.438","MEAN_ANOMALY":"257.5164","MEAN_MOTION_DOT":"0.00003503","NORAD_CAT_ID":"53995","TLE_LINE1":"1 53995U 22125AH  23063.84930560  .00003503  00000-0  23808-3 0  9997","PERIAPSIS":"538.925"},{"RA_OF_ASC_NODE":"115.8747","RCS_SIZE":"LARGE","ARG_OF_PERICENTER":"107.4219","FILE":"3851350","MEAN_MOTION":"15.08823711","LAUNCH_DATE":"2022-10-05","APOAPSIS":"540.692","OBJECT_NAME":"STARLINK-5131","GP_ID":"227512150","COUNTRY_CODE":"US","ECCENTRICITY":"0.00012970","SITE":"AFWTR","EPOCH":"2023-03-04T20:07:05.182752","INCLINATION":"53.2149","TLE_LINE2":"2 53996  53.2149 115.8747 0001297 107.4219 252.6915 15.08823711 23274","REV_AT_EPOCH":"2327","CLASSIFICATION_TYPE":"U","MEAN_ELEMENT_THEORY":"SGP4","OBJECT_TYPE":"PAYLOAD","TIME_SYSTEM":"UTC","SEMIMAJOR_AXIS":"6917.930","CENTER_NAME":"EARTH","REF_FRAME":"TEME","BSTAR":"-0.00022459000000","ELEMENT_SET_NO":"999","MEAN_MOTION_DDOT":"0.0000000000000","OBJECT_ID":"2022-125AJ","NORAD_CAT_ID":"53996","PERIAPSIS":"538.898","TLE_LINE1":"1 53996U 22125AJ  23063.83825443 -.00003859  00000-0 -22459-3 0  9997","MEAN_MOTION_DOT":"-0.00003859","DECAY_DATE":null,"EPHEMERIS_TYPE":"0","PERIOD":"95.439","MEAN_ANOMALY":"252.6915"},{"CENTER_NAME":"EARTH","SEMIMAJOR_AXIS":"6917.860","REF_FRAME":"TEME","OBJECT_TYPE":"PAYLOAD","TIME_SYSTEM":"UTC","MEAN_MOTION_DDOT":"0.0000000000000","OBJECT_ID":"2022-125AK","BSTAR":"-0.00017065000000","ELEMENT_SET_NO":"999","MEAN_MOTION_DOT":"-0.00003003","NORAD_CAT_ID":"53997","TLE_LINE1":"1 53997U 22125AK  23063.80609727 -.00003003  00000-0 -17065-3 0  9998","PERIAPSIS":"538.793","DECAY_DATE":null,"EPHEMERIS_TYPE":"0","PERIOD":"95.437","MEAN_ANOMALY":"269.4256","ARG_OF_PERICENTER":"90.6891","RCS_SIZE":"LARGE","FILE":"3851350","MEAN_MOTION":"15.08846602","RA_OF_ASC_NODE":"106.3967","LAUNCH_DATE":"2022-10-05","APOAPSIS":"540.658","COUNTRY_CODE":"US","GP_ID":"227511888","EPOCH":"2023-03-04T19:20:46.804128","SITE":"AFWTR","ECCENTRICITY":"0.00013480","OBJECT_NAME":"STARLINK-5130","MEAN_ELEMENT_THEORY":"SGP4","INCLINATION":"53.2196","CLASSIFICATION_TYPE":"U","TLE_LINE2":"2 53997  53.2196 106.3967 0001348  90.6891 269.4256 15.08846602 23405","REV_AT_EPOCH":"2340"},{"NORAD_CAT_ID":"53998","PERIAPSIS":"539.235","TLE_LINE1":"1 53998U 22125AL  23063.83183638  .00008444  00000-0  54784-3 0  9991","MEAN_MOTION_DOT":"0.00008444","EPHEMERIS_TYPE":"0","DECAY_DATE":null,"PERIOD":"95.437","MEAN_ANOMALY":"251.4893","OBJECT_TYPE":"PAYLOAD","TIME_SYSTEM":"UTC","SEMIMAJOR_AXIS":"6917.848","CENTER_NAME":"EARTH","REF_FRAME":"TEME","BSTAR":"0.00054784000000","ELEMENT_SET_NO":"999","MEAN_MOTION_DDOT":"0.0000000000000","OBJECT_ID":"2022-125AL","OBJECT_NAME":"STARLINK-5128","GP_ID":"227510650","COUNTRY_CODE":"US","SITE":"AFWTR","ECCENTRICITY":"0.00006910","EPOCH":"2023-03-04T19:57:50.663232","INCLINATION":"53.2163","REV_AT_EPOCH":"2327","TLE_LINE2":"2 53998  53.2163 115.8381 0000691 108.6174 251.4893 15.08850521 23277","CLASSIFICATION_TYPE":"U","MEAN_ELEMENT_THEORY":"SGP4","RA_OF_ASC_NODE":"115.8381","RCS_SIZE":"LARGE","ARG_OF_PERICENTER":"108.6174","FILE":"3851350","MEAN_MOTION":"15.08850521","LAUNCH_DATE":"2022-10-05","APOAPSIS":"540.191"},{"MEAN_MOTION_DDOT":"0.0000000000000","OBJECT_ID":"2022-125AM","BSTAR":"0.00044418000000","ELEMENT_SET_NO":"999","CENTER_NAME":"EARTH","SEMIMAJOR_AXIS":"6917.887","REF_FRAME":"TEME","OBJECT_TYPE":"PAYLOAD","TIME_SYSTEM":"UTC","DECAY_DATE":null,"PERIOD":"95.438","EPHEMERIS_TYPE":"0","MEAN_ANOMALY":"262.9193","MEAN_MOTION_DOT":"0.00006788","NORAD_CAT_ID":"53999","PERIAPSIS":"538.780","TLE_LINE1":"1 53999U 22125AM  23063.84562330  .00006788  00000-0  44418-3 0  9995","LAUNCH_DATE":"2022-10-05","APOAPSIS":"540.724","ARG_OF_PERICENTER":"97.1959","RCS_SIZE":"LARGE","FILE":"3851350","MEAN_MOTION":"15.08837964","RA_OF_ASC_NODE":"115.9194","MEAN_ELEMENT_THEORY":"SGP4","INCLINATION":"53.2154","CLASSIFICATION_TYPE":"U","TLE_LINE2":"2 53999  53.2154 115.9194 0001405  97.1959 262.9193 15.08837964 23274","REV_AT_EPOCH":"2327","COUNTRY_CODE":"US","GP_ID":"227510899","EPOCH":"2023-03-04T20:17:41.853120","SITE":"AFWTR","ECCENTRICITY":"0.00014050","OBJECT_NAME":"STARLINK-5079"},{"REV_AT_EPOCH":"2340","TLE_LINE2":"2 54000  53.2189 108.4603 0001508 109.1909 250.9246 15.08861917 23407","CLASSIFICATION_TYPE":"U","INCLINATION":"53.2189","MEAN_ELEMENT_THEORY":"SGP4","OBJECT_NAME":"STARLINK-5088","ECCENTRICITY":"0.00015080","SITE":"AFWTR","EPOCH":"2023-03-04T08:07:46.378272","GP_ID":"227480778","COUNTRY_CODE":"US","APOAPSIS":"540.722","LAUNCH_DATE":"2022-10-05","RA_OF_ASC_NODE":"108.4603","MEAN_MOTION":"15.08861917","FILE":"3851120","RCS_SIZE":"LARGE","ARG_OF_PERICENTER":"109.1909","MEAN_ANOMALY":"250.9246","DECAY_DATE":null,"EPHEMERIS_TYPE":"0","PERIOD":"95.436","PERIAPSIS":"538.635","TLE_LINE1":"1 54000U 22125AN  23063.33873123  .00008409  00000-0  54547-3 0  9994","NORAD_CAT_ID":"54000","MEAN_MOTION_DOT":"0.00008409","ELEMENT_SET_NO":"999","BSTAR":"0.00054547000000","OBJECT_ID":"2022-125AN","MEAN_MOTION_DDOT":"0.0000000000000","TIME_SYSTEM":"UTC","OBJECT_TYPE":"PAYLOAD","REF_FRAME":"TEME","SEMIMAJOR_AXIS":"6917.813","CENTER_NAME":"EARTH"},{"INCLINATION":"53.2163","REV_AT_EPOCH":"2327","TLE_LINE2":"2 54001  53.2163 115.8259 0001990  83.6418 276.4800 15.08847106 23273","CLASSIFICATION_TYPE":"U","MEAN_ELEMENT_THEORY":"SGP4","OBJECT_NAME":"STARLINK-5105","GP_ID":"227512388","COUNTRY_CODE":"US","SITE":"AFWTR","ECCENTRICITY":"0.00019900","EPOCH":"2023-03-04T19:56:28.815648","LAUNCH_DATE":"2022-10-05","APOAPSIS":"541.100","RA_OF_ASC_NODE":"115.8259","RCS_SIZE":"LARGE","ARG_OF_PERICENTER":"83.6418","MEAN_MOTION":"15.08847106","FILE":"3851350","DECAY_DATE":null,"EPHEMERIS_TYPE":"0","PERIOD":"95.437","MEAN_ANOMALY":"276.4800","NORAD_CAT_ID":"54001","PERIAPSIS":"538.347","TLE_LINE1":"1 54001U 22125AP  23063.83088907 -.00003447  00000-0 -19855-3 0  9990","MEAN_MOTION_DOT":"-0.00003447","BSTAR":"-0.00019855000000","ELEMENT_SET_NO":"999","MEAN_MOTION_DDOT":"0.0000000000000","OBJECT_ID":"2022-125AP","OBJECT_TYPE":"PAYLOAD","TIME_SYSTEM":"UTC","SEMIMAJOR_AXIS":"6917.859","CENTER_NAME":"EARTH","REF_FRAME":"TEME"}];
